ONEWEB-0249             
1 48967U 21060A   25321.40055927  .00000133  00000+0  31522-3 0  9990
2 48967  87.9013 270.9553 0001997  80.7797 279.3559 13.16593089211749
ONEWEB-0250             
1 48968U 21060B   25321.39293681  .00000127  00000+0  25918-3 0  9995
2 48968  87.9013 269.4056 0002481  57.5778 302.5598 13.25819261212152
ONEWEB-0252             
1 48970U 21060D   25321.43223994 -.00000007  00000+0 -53047-4 0  9997
2 48970  87.9016 270.9424 0001879  88.0669 272.0677 13.16594511211798
ONEWEB-0253             
1 48971U 21060E   25321.42115900  .00000067  00000+0  14032-3 0  9998
2 48971  87.9015 270.9489 0002080  82.2891 277.8476 13.16594182211724
ONEWEB-0254             
1 48972U 21060F   25321.43066132 -.00000003  00000+0 -41218-4 0  9991
2 48972  87.9023 270.9370 0002302  79.5967 280.5423 13.16594770211729
ONEWEB-0255             
1 48973U 21060G   25321.39264528  .00000180  00000+0  43649-3 0  9999
2 48973  87.9011 270.9632 0002102  79.7319 280.4049 13.16592591211798
ONEWEB-0256             
1 48974U 21060H   25321.41876462  .00000019  00000+0  16364-4 0  9995
2 48974  87.9007 270.9677 0001786  81.8313 278.3020 13.16592420211761
ONEWEB-0257             
1 48975U 21060J   25321.37522672 -.00000052  00000+0 -16937-3 0  9996
2 48975  87.9016 270.9519 0002025  83.1137 277.0224 13.16593180211714
